PROBA-1                 
1 26958U 01049B   26166.07898325  .00001852  00000+0  12235-3 0  9998
2 26958  97.9598 174.5377 0056334 128.8463 231.7811 15.07489068343300
CUTE-1 (CO-55)          
1 27844U 03031E   26165.99998252  .00000244  00000+0  12459-3 0  9998
2 27844  98.6736 174.5863 0009389 184.3513 175.7586 14.24334508191367
CUBESAT XI-IV (CO-57)   
1 27848U 03031J   26165.98734313  .00000202  00000+0  10800-3 0  9999
2 27848  98.6767 174.2883 0008884 203.7736 156.3033 14.23619747191065
APRIZESAT 4             
1 35684U 09041D   26166.16666432  .00000554  00000+0  72785-4 0  9991
2 35684  98.1413 241.4469 0042528 329.7444  30.1314 14.83876881911061
APRIZESAT 3             
1 35686U 09041F   26166.15959498  .00001447  00000+0  12913-3 0  9997
2 35686  98.2056 319.2863 0062761  74.2807 286.5324 14.96235077916079
PROBA-2                 
1 36037U 09059B   26166.10843066  .00000156  00000+0  46948-4 0  9997
2 36037  98.2449 349.4900 0012006 289.2478  70.7420 14.54861646881221
APRIZESAT 5             
1 37792U 11044E   26166.04803086  .00001005  00000+0  13401-3 0  9995
2 37792  98.2454  99.0278 0052519  11.1968 349.0398 14.81071954798476
APRIZESAT 6             
1 37793U 11044F   26165.58343832  .00000674  00000+0  10220-3 0  9999
2 37793  98.2367  76.0299 0044486  94.1121  26.1938 14.76912301796761
PROBA-V                 
1 39159U 13021A   26166.22146684  .00000050  00000+0  39774-4 0  9996
2 39159  98.3583 144.9251 0005064 127.9948 232.1690 14.23596587680834
APRIZESAT 7             
1 39416U 13066A   26166.14139458  .00001056  00000+0  10988-3 0  9995
2 39416  97.7709 119.3907 0034836 216.1827 143.7035 14.91560106680926
APRIZESAT 8             
1 39425U 13066K   26166.12361098  .00000858  00000+0  98931-4 0  9994
2 39425  97.8221 113.6202 0044495 293.5945  66.0602 14.87649416679363
BUGSAT-1 (TITA)         
1 40014U 14033E   26166.18758481  .00006172  00000+0  32608-3 0  9990
2 40014  98.0437 258.6187 0027821 185.2892 174.8049 15.15569782655530
SAUDISAT 4              
1 40016U 14033G   26166.15759841  .00000576  00000+0  82381-4 0  9996
2 40016  97.7579 312.3625 0046206  80.4004 280.2424 14.79542211645770
APRIZESAT 9             
1 40018U 14033J   26165.89987428  .00000604  00000+0  96124-4 0  9994
2 40018  97.9058 299.1544 0065517 206.5782 153.2063 14.74211755643225
APRIZESAT 10            
1 40019U 14033K   26166.15385696  .00000345  00000+0  62348-4 0  9997
2 40019  97.9646 293.1586 0077408 280.4581  78.7910 14.70880746641957
TECHDEMOSAT-1 (TDS-1)   
1 40076U 14037H   26165.97646715  .00007388  00000+0  41956-3 0  9990
2 40076  98.3810 157.9704 0004489 276.1177  83.9540 15.13266148647897
TECHNOSAT               
1 42829U 17042E   26166.18810748  .00003590  00000+0  25659-3 0  9993
2 42829  97.4275 323.9217 0018833 100.5523 259.7826 15.04948022486403
FLYING LAPTOP           
1 42831U 17042G   26166.18578683  .00002857  00000+0  22668-3 0  9997
2 42831  97.4673 321.7954 0019559 128.3139 231.9848 15.01133413486154
HAWK-A                  
1 43765U 18099H   26166.11663765  .00005767  00000+0  23312-3 0  9996
2 43765  97.3916 218.3794 0033162 293.5912  66.1844 15.24622996412789
HAWK-B                  
1 43794U 18099AN  26166.13571100  .00005376  00000+0  23007-3 0  9998
2 43794  97.3964 217.8176 0030613 312.4919  47.3731 15.22807516412729
HAWK-C                  
1 43799U 18099AT  26166.09786313  .00007207  00000+0  26019-3 0  9993
2 43799  97.3893 219.2628 0038811 293.5256  66.1908 15.28078828413597
SALSAT                  
1 46495U 20068K   26165.98698010  .00006897  00000+0  24187-3 0  9999
2 46495  97.8843 168.9175 0008203 317.5916  42.4688 15.29772719315024
HAWK-2C                 
1 47502U 21006CT  26166.06575079  .00006037  00000+0  18208-3 0  9994
2 47502  97.2277 210.4177 0006467 193.0562 167.0515 15.34641584299179
HAWK-2A                 
1 47505U 21006CW  26166.06826388  .00006070  00000+0  18298-3 0  9995
2 47505  97.2321 211.0969 0005865 196.3832 163.7222 15.34656544299175
HAWK-2B                 
1 47508U 21006CZ  26166.06391905  .00007117  00000+0  21352-3 0  9998
2 47508  97.2190 209.4277 0006450 194.6333 165.4725 15.34742438299178
HAWK-3B                 
1 48931U 21059BE  26166.09275396  .00040886  00000+0  34909-3 0  9997
2 48931  97.6652   2.6028 0003366 342.5298  17.5847 15.69405371277527
HAWK-3C                 
1 48948U 21059BX  26166.09243183  .00040215  00000+0  34337-3 0  9995
2 48948  97.6773   8.2853 0003678 343.4664  16.6476 15.69406921277520
HAWK-3A                 
1 48957U 21059CG  26166.09231718  .00041370  00000+0  35304-3 0  9994
2 48957  97.6716   5.4917 0003772 345.4775  14.6377 15.69413390277523
HAWK-5C                 
1 52754U 22057Y   26166.17356780  .00016111  00000+0  27571-3 0  9991
2 52754  97.6589 325.7104 0005142  89.2260 270.9580 15.51330097226038
HAWK-5B                 
1 52756U 22057AA  26166.17341803  .00016142  00000+0  27620-3 0  9992
2 52756  97.6599 324.0593 0005792  82.1799 278.0110 15.51330943226033
HAWK-5A                 
1 52757U 22057AB  26166.17320700  .00016238  00000+0  27785-3 0  9994
2 52757  97.6597 324.8906 0005710  85.1897 275.0006 15.51328713226033
